IRIDIUM 126             
1 42809U 17039G   24189.81211552  .00000263  00000+0  86718-4 0  9996
2 42809  86.3970 290.0775 0002122 100.4570 259.6865 14.34217145368282
IRIDIUM 124             
1 42810U 17039H   24190.49129253  .00000493  00000+0  14045-3 0  9998
2 42810  86.4491 226.5264 0002654  89.3294 270.8211 14.43289374372893
IRIDIUM 128             
1 42811U 17039J   24189.80285875  .00000452  00000+0  15421-3 0  9999
2 42811  86.3984 321.6117 0002335  97.3215 262.8246 14.34218144368309
IRIDIUM 121             
1 42812U 17039K   24190.52883445  .00000325  00000+0  10898-3 0  9990
2 42812  86.3970 289.8006 0002316  94.0935 266.0525 14.34218382368376
IRIDIUM 133             
1 42955U 17061A   24189.83456841  .00000404  00000+0  13708-3 0  9992
2 42955  86.3985 321.6985 0002106  96.8250 263.3185 14.34217211353105
IRIDIUM 100             
1 42956U 17061B   24189.82822484  .00000244  00000+0  79966-4 0  9993
2 42956  86.3983 321.6364 0002101  95.2199 264.9237 14.34219123353126
IRIDIUM 122             
1 42957U 17061C   24189.44767116  .00000386  00000+0  13092-3 0  9996
2 42957  86.3982 321.7938 0002155  97.3811 262.7630 14.34217834353059
IRIDIUM 129             
1 42958U 17061D   24189.89165270  .00000389  00000+0  13176-3 0  9995
2 42958  86.3983 321.6677 0002128 101.9321 258.2114 14.34215947353137
